ONEWEB-0685             
1 54679U 22166AP  25171.41511475  .00000009  00000+0 -99259-5 0  9990
2 54679  87.9262 316.1455 0001656 102.7139 257.4180 13.21826561123629
ONEWEB-0712             
1 54680U 22166AQ  25171.61847436  .00000060  00000+0  12315-3 0  9995
2 54680  87.9045 300.8283 0001966 117.3026 242.8305 13.16593239124940
ONEWEB-0714             
1 54681U 22166AR  25170.81584806  .00000087  00000+0  18004-3 0  9996
2 54681  87.9264 316.2565 0001659 100.9295 259.2026 13.21824662124139
ONEWEB-0532             
1 55140U 23004A   25171.50123485  .00000040  00000+0  70164-4 0  9993
2 55140  87.9069  77.8661 0001936  64.2298 295.9033 13.17651412119958
ONEWEB-0533             
1 55141U 23004B   25171.40713599 -.00000308  00000+0 -89115-3 0  9998
2 55141  87.8889  62.6132 0001679  80.4094 279.7224 13.12442117120602
ONEWEB-0541             
1 55142U 23004C   25171.53561191  .00000551  00000+0  15194-2 0  9995
2 55142  87.8843  93.1346 0002007  77.8060 282.3292 13.11417312118541
ONEWEB-0543             
1 55143U 23004D   25171.08159980  .00000025  00000+0  30147-4 0  9998
2 55143  87.9129  47.4802 0001759  91.5684 268.5650 13.18685734121974
ONEWEB-0544             
1 55144U 23004E   25171.37878826  .00000000  00000+0 -33511-4 0  9990
2 55144  87.9129  47.4107 0002012  86.5973 273.5389 13.18685049122011
